ONEWEB-0424             
1 50497U 21132AE  26054.23526926  .00000094  00000+0  20614-3 0  9994
2 50497  87.9242 358.0773 0002191  83.2449 276.8933 13.18685602206629
ONEWEB-0426             
1 50498U 21132AF  26054.11979832  .00000127  00000+0  28959-3 0  9997
2 50498  87.9243 358.0920 0001779  58.0688 302.0617 13.18685362206557
ONEWEB-0427             
1 50499U 21132AG  26054.08186207  .00000064  00000+0  12998-3 0  9996
2 50499  87.9243 358.0859 0002001  73.7999 286.3354 13.18686501206577
ONEWEB-0429             
1 50500U 21132AH  26054.06866247  .00000058  00000+0  11352-3 0  9992
2 50500  87.9241 358.1218 0001820  84.2381 275.8959 13.18684968206544
ONEWEB-0430             
1 50501U 21132AJ  26054.13300068  .00000069  00000+0  14272-3 0  9991
2 50501  87.9243 358.1057 0002015  86.1789 273.9574 13.18686004206598
ONEWEB-0432             
1 50502U 21132AK  26054.24161747  .00000080  00000+0  16980-3 0  9994
2 50502  87.9241 358.0526 0002533  74.6091 285.5321 13.18643296206562
ONEWEB-0440             
1 50503U 21132AL  26054.22866530  .00000068  00000+0  13913-3 0  9994
2 50503  87.9243 358.0757 0001440  84.1346 275.9950 13.18685360206554
ONEWEB-0450             
1 50504U 21132AM  26054.07045037  .00000002  00000+0 -27809-4 0  9998
2 50504  87.9233 358.1242 0001809  89.1604 270.9735 13.18684596206562
ONEWEB-0410             
1 51622U 22012A   26054.16116614 -.00000047  00000+0 -15547-3 0  9993
2 51622  87.9131  28.4931 0002516  48.8582 311.2766 13.17648399198682
ONEWEB-0411             
1 51623U 22012B   26054.24033550  .00000459  00000+0  12775-2 0  9994
2 51623  87.8754  58.9586 0002327  99.6824 260.4566 13.10370649194367
ONEWEB-0415             
1 51624U 22012C   26054.23701876  .00000622  00000+0  17464-2 0  9999
2 51624  87.8754  58.9620 0002137  94.0372 266.0999 13.10370209194367
ONEWEB-0416             
1 51625U 22012D   26054.24862881  .00000047  00000+0  99762-4 0  9999
2 51625  87.8751  58.9808 0002352  88.9788 271.1609 13.10369252194401
ONEWEB-0422             
1 51626U 22012E   26054.17127938 -.00000013  00000+0 -67749-4 0  9994
2 51626  87.9131  28.4933 0001449 101.8426 258.2868 13.17647965198792
ONEWEB-0423             
1 51627U 22012F   26054.16452599  .00000003  00000+0 -24420-4 0  9995
2 51627  87.9129  28.5043 0001753  82.9528 277.1803 13.17649377198689
ONEWEB-0425             
1 51628U 22012G   26054.02950840 -.00000536  00000+0 -15727-2 0  9993
2 51628  87.8761  59.0008 0001814  78.1275 282.0055 13.10370477194376
ONEWEB-0428             
1 51629U 22012H   26054.23867621  .00000436  00000+0  12127-2 0  9999
2 51629  87.8754  58.9731 0001811  90.2232 269.9103 13.10370018194363
ONEWEB-0431             
1 51630U 22012J   26053.97959429 -.00000016  00000+0 -83516-4 0  9997
2 51630  87.8769  59.0086 0002246 103.0196 257.1182 13.10375017194383
