[{"OBJECT_NAME":"ONEWEB-0424","OBJECT_ID":"2021-132AE","EPOCH":"2026-02-23T05:38:47.264064","MEAN_MOTION":13.18685602,"ECCENTRICITY":0.00021915,"INCLINATION":87.9242,"RA_OF_ASC_NODE":358.0773,"ARG_OF_PERICENTER":83.2449,"MEAN_ANOMALY":276.8933,"EPHEMERIS_TYPE":0,"CLASSIFICATION_TYPE":"U","NORAD_CAT_ID":50497,"ELEMENT_SET_NO":999,"REV_AT_EPOCH":20662,"BSTAR":0.00020614328,"MEAN_MOTION_DOT":9.4e-7,"MEAN_MOTION_DDOT":0},{"OBJECT_NAME":"ONEWEB-0426","OBJECT_ID":"2021-132AF","EPOCH":"2026-02-23T02:52:30.574848","MEAN_MOTION":13.18685362,"ECCENTRICITY":0.00017798,"INCLINATION":87.9243,"RA_OF_ASC_NODE":358.092,"ARG_OF_PERICENTER":58.0688,"MEAN_ANOMALY":302.0617,"EPHEMERIS_TYPE":0,"CLASSIFICATION_TYPE":"U","NORAD_CAT_ID":50498,"ELEMENT_SET_NO":999,"REV_AT_EPOCH":20655,"BSTAR":0.00028959196,"MEAN_MOTION_DOT":1.27e-6,"MEAN_MOTION_DDOT":0},{"OBJECT_NAME":"ONEWEB-0427","OBJECT_ID":"2021-132AG","EPOCH":"2026-02-23T01:57:52.882848","MEAN_MOTION":13.18686501,"ECCENTRICITY":0.00020016,"INCLINATION":87.9243,"RA_OF_ASC_NODE":358.0859,"ARG_OF_PERICENTER":73.7999,"MEAN_ANOMALY":286.3354,"EPHEMERIS_TYPE":0,"CLASSIFICATION_TYPE":"U","NORAD_CAT_ID":50499,"ELEMENT_SET_NO":999,"REV_AT_EPOCH":20657,"BSTAR":0.00012998053,"MEAN_MOTION_DOT":6.4e-7,"MEAN_MOTION_DDOT":0},{"OBJECT_NAME":"ONEWEB-0429","OBJECT_ID":"2021-132AH","EPOCH":"2026-02-23T01:38:52.437408","MEAN_MOTION":13.18684968,"ECCENTRICITY":0.00018207,"INCLINATION":87.9241,"RA_OF_ASC_NODE":358.1218,"ARG_OF_PERICENTER":84.2381,"MEAN_ANOMALY":275.8959,"EPHEMERIS_TYPE":0,"CLASSIFICATION_TYPE":"U","NORAD_CAT_ID":50500,"ELEMENT_SET_NO":999,"REV_AT_EPOCH":20654,"BSTAR":0.00011352093,"MEAN_MOTION_DOT":5.8e-7,"MEAN_MOTION_DDOT":0},{"OBJECT_NAME":"ONEWEB-0430","OBJECT_ID":"2021-132AJ","EPOCH":"2026-02-23T03:11:31.258752","MEAN_MOTION":13.18686004,"ECCENTRICITY":0.00020158,"INCLINATION":87.9243,"RA_OF_ASC_NODE":358.1057,"ARG_OF_PERICENTER":86.1789,"MEAN_ANOMALY":273.9574,"EPHEMERIS_TYPE":0,"CLASSIFICATION_TYPE":"U","NORAD_CAT_ID":50501,"ELEMENT_SET_NO":999,"REV_AT_EPOCH":20659,"BSTAR":0.00014271606,"MEAN_MOTION_DOT":6.9e-7,"MEAN_MOTION_DDOT":0},{"OBJECT_NAME":"ONEWEB-0432","OBJECT_ID":"2021-132AK","EPOCH":"2026-02-23T05:47:55.749408","MEAN_MOTION":13.18643296,"ECCENTRICITY":0.00025337,"INCLINATION":87.9241,"RA_OF_ASC_NODE":358.0526,"ARG_OF_PERICENTER":74.6091,"MEAN_ANOMALY":285.5321,"EPHEMERIS_TYPE":0,"CLASSIFICATION_TYPE":"U","NORAD_CAT_ID":50502,"ELEMENT_SET_NO":999,"REV_AT_EPOCH":20656,"BSTAR":0.00016979508,"MEAN_MOTION_DOT":8.0e-7,"MEAN_MOTION_DDOT":0},{"OBJECT_NAME":"ONEWEB-0440","OBJECT_ID":"2021-132AL","EPOCH":"2026-02-23T05:29:16.681920","MEAN_MOTION":13.1868536,"ECCENTRICITY":0.00014406,"INCLINATION":87.9243,"RA_OF_ASC_NODE":358.0757,"ARG_OF_PERICENTER":84.1346,"MEAN_ANOMALY":275.995,"EPHEMERIS_TYPE":0,"CLASSIFICATION_TYPE":"U","NORAD_CAT_ID":50503,"ELEMENT_SET_NO":999,"REV_AT_EPOCH":20655,"BSTAR":0.0001391266,"MEAN_MOTION_DOT":6.8e-7,"MEAN_MOTION_DDOT":0},{"OBJECT_NAME":"ONEWEB-0450","OBJECT_ID":"2021-132AM","EPOCH":"2026-02-23T01:41:26.911968","MEAN_MOTION":13.18684596,"ECCENTRICITY":0.0001809,"INCLINATION":87.9233,"RA_OF_ASC_NODE":358.1242,"ARG_OF_PERICENTER":89.1604,"MEAN_ANOMALY":270.9735,"EPHEMERIS_TYPE":0,"CLASSIFICATION_TYPE":"U","NORAD_CAT_ID":50504,"ELEMENT_SET_NO":999,"REV_AT_EPOCH":20656,"BSTAR":-2.7808547e-5,"MEAN_MOTION_DOT":2.0e-8,"MEAN_MOTION_DDOT":0},{"OBJECT_NAME":"ONEWEB-0410","OBJECT_ID":"2022-012A","EPOCH":"2026-02-23T03:52:04.754496","MEAN_MOTION":13.17648399,"ECCENTRICITY":0.0002516,"INCLINATION":87.9131,"RA_OF_ASC_NODE":28.4931,"ARG_OF_PERICENTER":48.8582,"MEAN_ANOMALY":311.2766,"EPHEMERIS_TYPE":0,"CLASSIFICATION_TYPE":"U","NORAD_CAT_ID":51622,"ELEMENT_SET_NO":999,"REV_AT_EPOCH":19868,"BSTAR":-0.0001554652,"MEAN_MOTION_DOT":-4.7e-7,"MEAN_MOTION_DDOT":0},{"OBJECT_NAME":"ONEWEB-0411","OBJECT_ID":"2022-012B","EPOCH":"2026-02-23T05:46:04.987200","MEAN_MOTION":13.10370649,"ECCENTRICITY":0.00023276,"INCLINATION":87.8754,"RA_OF_ASC_NODE":58.9586,"ARG_OF_PERICENTER":99.6824,"MEAN_ANOMALY":260.4566,"EPHEMERIS_TYPE":0,"CLASSIFICATION_TYPE":"U","NORAD_CAT_ID":51623,"ELEMENT_SET_NO":999,"REV_AT_EPOCH":19436,"BSTAR":0.0012775218,"MEAN_MOTION_DOT":4.59e-6,"MEAN_MOTION_DDOT":0},{"OBJECT_NAME":"ONEWEB-0415","OBJECT_ID":"2022-012C","EPOCH":"2026-02-23T05:41:18.420864","MEAN_MOTION":13.10370209,"ECCENTRICITY":0.0002137,"INCLINATION":87.8754,"RA_OF_ASC_NODE":58.962,"ARG_OF_PERICENTER":94.0372,"MEAN_ANOMALY":266.0999,"EPHEMERIS_TYPE":0,"CLASSIFICATION_TYPE":"U","NORAD_CAT_ID":51624,"ELEMENT_SET_NO":999,"REV_AT_EPOCH":19436,"BSTAR":0.0017464239,"MEAN_MOTION_DOT":6.22e-6,"MEAN_MOTION_DDOT":0},{"OBJECT_NAME":"ONEWEB-0416","OBJECT_ID":"2022-012D","EPOCH":"2026-02-23T05:58:01.529184","MEAN_MOTION":13.10369252,"ECCENTRICITY":0.00023521,"INCLINATION":87.8751,"RA_OF_ASC_NODE":58.9808,"ARG_OF_PERICENTER":88.9788,"MEAN_ANOMALY":271.1609,"EPHEMERIS_TYPE":0,"CLASSIFICATION_TYPE":"U","NORAD_CAT_ID":51625,"ELEMENT_SET_NO":999,"REV_AT_EPOCH":19440,"BSTAR":9.9762436e-5,"MEAN_MOTION_DOT":4.7e-7,"MEAN_MOTION_DDOT":0},{"OBJECT_NAME":"ONEWEB-0422","OBJECT_ID":"2022-012E","EPOCH":"2026-02-23T04:06:38.538432","MEAN_MOTION":13.17647965,"ECCENTRICITY":0.00014495,"INCLINATION":87.9131,"RA_OF_ASC_NODE":28.4933,"ARG_OF_PERICENTER":101.8426,"MEAN_ANOMALY":258.2868,"EPHEMERIS_TYPE":0,"CLASSIFICATION_TYPE":"U","NORAD_CAT_ID":51626,"ELEMENT_SET_NO":999,"REV_AT_EPOCH":19879,"BSTAR":-6.7749463e-5,"MEAN_MOTION_DOT":-1.3e-7,"MEAN_MOTION_DDOT":0},{"OBJECT_NAME":"ONEWEB-0423","OBJECT_ID":"2022-012F","EPOCH":"2026-02-23T03:56:55.045536","MEAN_MOTION":13.17649377,"ECCENTRICITY":0.00017538,"INCLINATION":87.9129,"RA_OF_ASC_NODE":28.5043,"ARG_OF_PERICENTER":82.9528,"MEAN_ANOMALY":277.1803,"EPHEMERIS_TYPE":0,"CLASSIFICATION_TYPE":"U","NORAD_CAT_ID":51627,"ELEMENT_SET_NO":999,"REV_AT_EPOCH":19868,"BSTAR":-2.4420023e-5,"MEAN_MOTION_DOT":3.0e-8,"MEAN_MOTION_DDOT":0},{"OBJECT_NAME":"ONEWEB-0425","OBJECT_ID":"2022-012G","EPOCH":"2026-02-23T00:42:29.525760","MEAN_MOTION":13.10370477,"ECCENTRICITY":0.00018143,"INCLINATION":87.8761,"RA_OF_ASC_NODE":59.0008,"ARG_OF_PERICENTER":78.1275,"MEAN_ANOMALY":282.0055,"EPHEMERIS_TYPE":0,"CLASSIFICATION_TYPE":"U","NORAD_CAT_ID":51628,"ELEMENT_SET_NO":999,"REV_AT_EPOCH":19437,"BSTAR":-0.0015726595,"MEAN_MOTION_DOT":-5.36e-6,"MEAN_MOTION_DDOT":0},{"OBJECT_NAME":"ONEWEB-0428","OBJECT_ID":"2022-012H","EPOCH":"2026-02-23T05:43:41.624544","MEAN_MOTION":13.10370018,"ECCENTRICITY":0.00018116,"INCLINATION":87.8754,"RA_OF_ASC_NODE":58.9731,"ARG_OF_PERICENTER":90.2232,"MEAN_ANOMALY":269.9103,"EPHEMERIS_TYPE":0,"CLASSIFICATION_TYPE":"U","NORAD_CAT_ID":51629,"ELEMENT_SET_NO":999,"REV_AT_EPOCH":19436,"BSTAR":0.0012126506,"MEAN_MOTION_DOT":4.36e-6,"MEAN_MOTION_DDOT":0},{"OBJECT_NAME":"ONEWEB-0431","OBJECT_ID":"2022-012J","EPOCH":"2026-02-22T23:30:36.946656","MEAN_MOTION":13.10375017,"ECCENTRICITY":0.00022463,"INCLINATION":87.8769,"RA_OF_ASC_NODE":59.0086,"ARG_OF_PERICENTER":103.0196,"MEAN_ANOMALY":257.1182,"EPHEMERIS_TYPE":0,"CLASSIFICATION_TYPE":"U","NORAD_CAT_ID":51630,"ELEMENT_SET_NO":999,"REV_AT_EPOCH":19438,"BSTAR":-8.3515982e-5,"MEAN_MOTION_DOT":-1.6e-7,"MEAN_MOTION_DDOT":0}]
